OBJECT_NAME,OBJECT_ID,EPOCH,MEAN_MOTION,ECCENTRICITY,INCLINATION,RA_OF_ASC_NODE,ARG_OF_PERICENTER,MEAN_ANOMALY,EPHEMERIS_TYPE,CLASSIFICATION_TYPE,NORAD_CAT_ID,ELEMENT_SET_NO,REV_AT_EPOCH,BSTAR,MEAN_MOTION_DOT,MEAN_MOTION_DDOT
STARLINK-37603,2026-154AD,2026-07-10T14:00:04.000032,16.08629376,.00006942,53.1588,316.2409,54.8690,238.2123,0,U,69846,999,192,-.16400883E-2,-.1448889E-1,.72091335E-3
STARLINK-37595,2026-154AE,2026-07-10T14:00:04.000032,16.08818220,.00007076,53.1587,316.2336,57.1956,239.2805,0,U,69847,999,192,-.162376E-2,-.1451993E-1,.72547887E-3
